{
  "type": "FeatureCollection",
  "description": "Almaty Training Field — учебные NFZ для демонстрации (не реальные закрытые зоны)",
  "features": [
    {
      "type": "Feature",
      "properties": {
        "name": "Training Restricted Area A",
        "description": "Учебная запретная зона — тренировочный полигон AIS",
        "max_altitude": 200.0,
        "min_altitude": 0.0,
        "active": true
      },
      "geometry": {
        "type": "Polygon",
        "coordinates": [
          [
            [76.8540, 43.2230],
            [76.8580, 43.2230],
            [76.8580, 43.2260],
            [76.8540, 43.2260],
            [76.8540, 43.2230]
          ]
        ]
      }
    },
    {
      "type": "Feature",
      "properties": {
        "name": "Training Safe Corridor",
        "description": "Разрешённый учебный коридор полёта",
        "max_altitude": 500.0,
        "min_altitude": 0.0,
        "active": false,
        "type": "safe_zone"
      },
      "geometry": {
        "type": "Polygon",
        "coordinates": [
          [
            [76.8460, 43.2180],
            [76.8520, 43.2180],
            [76.8520, 43.2240],
            [76.8460, 43.2240],
            [76.8460, 43.2180]
          ]
        ]
      }
    }
  ]
}
